STARLINK-36197          
1 67205U 25304P   26002.94648718 -.00833441  00000+0 -10455-1 0  9991
2 67205  70.0018 347.5670 0002427 239.5021 120.5932 15.61788504  3827
STARLINK-36056          
1 67206U 25304Q   26003.45873914 -.01963765  00000+0 -27641-1 0  9996
2 67206  69.9992 346.1410 0002540 279.4851  80.6052 15.59849559  3906
STARLINK-36225          
1 67207U 25304R   26003.00987009 -.00636057  00000+0 -79512-2 0  9994
2 67207  70.0002 347.3859 0003605 266.8928  93.1851 15.61638761  3865
STARLINK-36265          
1 67208U 25304S   26003.45808976  .00219749  00000+0  25039-2 0  9997
2 67208  70.0001 346.1401 0011027 311.1083  48.9155 15.61316146  3931
STARLINK-36226          
1 67209U 25304T   26002.94512407 -.00859128  00000+0 -10812-1 0  9997
2 67209  70.0016 347.5619 0002262 243.3126 116.7834 15.61777599  3851
STARLINK-36173          
1 67210U 25304U   26003.39319089 -.01946345  00000+0 -27004-1 0  9990
2 67210  70.0012 346.3166 0005727 305.6839  54.3818 15.60147702  3928
STARLINK-36280          
1 67211U 25304V   26002.94443280 -.00418346  00000+0 -50150-2 0  9995
2 67211  69.9984 347.5553 0004120 169.8644 190.2631 15.62032218  3859
STARLINK-36213          
1 67212U 25304W   26003.45667267 -.01345682  00000+0 -18591-1 0  9991
2 67212  70.0013 346.1335 0005160 280.5011  79.5598 15.59636025  3935
STARLINK-36199          
1 67213U 25304X   26003.00621202  .02447114  00000+0  17696-1 0  9999
2 67213  69.9999 347.3713 0031342 230.7906 129.0506 15.69173707  3866
STARLINK-36203          
1 67214U 25304Y   26003.45597152 -.01910986  00000+0 -26968-1 0  9990
2 67214  70.0003 346.1319 0004485 282.5392  77.5297 15.59661723  3938
STARLINK-36221          
1 67215U 25304Z   26003.07089646  .05263592  00000+0  45280-1 0  9997
2 67215  69.9999 347.1958 0008399 292.1240  67.9061 15.64754392  3873
STARLINK-36212          
1 67216U 25304AA  26003.32666486 -.02327924  00000+0 -31647-1 0  9990
2 67216  69.9998 346.4828 0005884 231.3386 128.7279 15.60730415  3911
